0 TITAN 3C TRANSTAGE DEB
1 05992U 65108S   13282.45886428 -.00000133  00000-0  00000+0 0  4594
2 05992 027.2181 018.2300 6637694 146.9883 349.9408 02.66257512 97810
0 TITAN 3C TRANSTAGE DEB
1 05992U 65108S   13288.47002988 -.00000125  00000-0  00000+0 0  4606
2 05992 027.2280 015.9706 6636667 150.7408 351.8309 02.66254061 97974
0 TITAN 3C TRANSTAGE DEB
1 05992U 65108S   13294.48096902 -.00000128  00000-0  00000+0 0  4617
2 05992 027.2361 013.7174 6635520 154.4807 353.4366 02.66248960 98131
